[{"OBJECT_NAME":"FLOCK 4G-25","OBJECT_ID":"2025-009AP","EPOCH":"2026-03-09T17:53:50.680608","MEAN_MOTION":15.27424196,"ECCENTRICITY":8.276e-5,"INCLINATION":97.4049,"RA_OF_ASC_NODE":151.4141,"ARG_OF_PERICENTER":316.3151,"MEAN_ANOMALY":43.8023,"EPHEMERIS_TYPE":0,"CLASSIFICATION_TYPE":"U","NORAD_CAT_ID":62646,"ELEMENT_SET_NO":999,"REV_AT_EPOCH":6373,"BSTAR":0.00038902475,"MEAN_MOTION_DOT":0.00010373,"MEAN_MOTION_DDOT":0},{"OBJECT_NAME":"STARLINK-33644","OBJECT_ID":"2025-065R","EPOCH":"2026-03-09T19:36:14.530176","MEAN_MOTION":15.27593119,"ECCENTRICITY":0.00024769,"INCLINATION":43.003,"RA_OF_ASC_NODE":106.8035,"ARG_OF_PERICENTER":265.9603,"MEAN_ANOMALY":94.0966,"EPHEMERIS_TYPE":0,"CLASSIFICATION_TYPE":"U","NORAD_CAT_ID":63414,"ELEMENT_SET_NO":999,"REV_AT_EPOCH":5285,"BSTAR":0.00079325613,"MEAN_MOTION_DOT":0.0002164,"MEAN_MOTION_DDOT":0}]
